start=new Date('2022-05-28T00:00:00.000Z').valueOf();
sats=[{"LAUNCH_DATE":"2020-10-06","DECAY_DATE":null,"MEAN_ELEMENT_THEORY":"SGP4","TLE_LINE2":"2 46560  53.0536 245.7215 0001538  64.8592 295.2557 15.06400051 91414","APOAPSIS":"548.279","BSTAR":"-0.00000776140000","RCS_SIZE":"LARGE","COUNTRY_CODE":"US","ARG_OF_PERICENTER":"64.8592","MEAN_MOTION_DOT":"-0.00000397","EPHEMERIS_TYPE":"0","INCLINATION":"53.0536","ECCENTRICITY":"0.00015380","MEAN_MOTION_DDOT":"0.0000000000000","GP_ID":"204714485","TIME_SYSTEM":"UTC","NORAD_CAT_ID":"46560","SITE":"AFETR","REF_FRAME":"TEME","OBJECT_ID":"2020-070AE","PERIAPSIS":"546.148","TLE_LINE1":"1 46560U 20070AE  22147.67353849 -.00000397  00000-0 -77614-5 0  9992","ELEMENT_SET_NO":"999","MEAN_MOTION":"15.06400051","EPOCH":"2022-05-27T16:09:53.725536","CLASSIFICATION_TYPE":"U","REV_AT_EPOCH":"9141","FILE":"3468079","PERIOD":"95.592","OBJECT_NAME":"STARLINK-1706","RA_OF_ASC_NODE":"245.7215","OBJECT_TYPE":"PAYLOAD","SEMIMAJOR_AXIS":"6925.348","CENTER_NAME":"EARTH","MEAN_ANOMALY":"295.2557"},{"MEAN_MOTION":"15.06392480","TLE_LINE1":"1 46561U 20070AF  22147.62468303 -.00001757  00000-0 -99071-4 0  9991","ELEMENT_SET_NO":"999","REF_FRAME":"TEME","SITE":"AFETR","NORAD_CAT_ID":"46561","PERIAPSIS":"546.084","OBJECT_ID":"2020-070AF","REV_AT_EPOCH":"9140","OBJECT_NAME":"STARLINK-1709","PERIOD":"95.593","FILE":"3468079","EPOCH":"2022-05-27T14:59:32.613792","CLASSIFICATION_TYPE":"U","OBJECT_TYPE":"PAYLOAD","RA_OF_ASC_NODE":"245.9808","CENTER_NAME":"EARTH","MEAN_ANOMALY":"296.9265","SEMIMAJOR_AXIS":"6925.372","TLE_LINE2":"2 46561  53.0526 245.9808 0001665  63.1894 296.9265 15.06392480 91401","MEAN_ELEMENT_THEORY":"SGP4","APOAPSIS":"548.390","BSTAR":"-0.00009907100000","LAUNCH_DATE":"2020-10-06","DECAY_DATE":null,"COUNTRY_CODE":"US","ARG_OF_PERICENTER":"63.1894","RCS_SIZE":"LARGE","INCLINATION":"53.0526","ECCENTRICITY":"0.00016650","MEAN_MOTION_DOT":"-0.00001757","EPHEMERIS_TYPE":"0","MEAN_MOTION_DDOT":"0.0000000000000","GP_ID":"204714995","TIME_SYSTEM":"UTC"},{"ECCENTRICITY":"0.00015680","INCLINATION":"53.0531","MEAN_MOTION_DOT":"0.00000801","EPHEMERIS_TYPE":"0","MEAN_MOTION_DDOT":"0.0000000000000","TIME_SYSTEM":"UTC","GP_ID":"204678519","MEAN_ELEMENT_THEORY":"SGP4","TLE_LINE2":"2 46562  53.0531 241.2565 0001568  77.9270 282.1894 15.06396275 91467","APOAPSIS":"548.311","BSTAR":"0.00007267300000","LAUNCH_DATE":"2020-10-06","DECAY_DATE":null,"COUNTRY_CODE":"US","ARG_OF_PERICENTER":"77.9270","RCS_SIZE":"LARGE","OBJECT_TYPE":"PAYLOAD","RA_OF_ASC_NODE":"241.2565","CENTER_NAME":"EARTH","MEAN_ANOMALY":"282.1894","SEMIMAJOR_AXIS":"6925.360","TLE_LINE1":"1 46562U 20070AG  22147.55789006  .00000801  00000-0  72673-4 0  9996","MEAN_MOTION":"15.06396275","ELEMENT_SET_NO":"999","NORAD_CAT_ID":"46562","REF_FRAME":"TEME","SITE":"AFETR","OBJECT_ID":"2020-070AG","PERIAPSIS":"546.139","REV_AT_EPOCH":"9146","FILE":"3467585","OBJECT_NAME":"STARLINK-1714","PERIOD":"95.592","EPOCH":"2022-05-27T13:23:21.701184","CLASSIFICATION_TYPE":"U"},{"MEAN_MOTION":"15.06400555","TLE_LINE1":"1 46563U 20070AH  22147.67215471 -.00000570  00000-0 -19349-4 0  9996","ELEMENT_SET_NO":"999","OBJECT_ID":"2020-070AH","PERIAPSIS":"545.852","NORAD_CAT_ID":"46563","REF_FRAME":"TEME","SITE":"AFETR","FILE":"3468079","OBJECT_NAME":"STARLINK-1730","PERIOD":"95.592","REV_AT_EPOCH":"9148","CLASSIFICATION_TYPE":"U","EPOCH":"2022-05-27T16:07:54.166944","OBJECT_TYPE":"PAYLOAD","RA_OF_ASC_NODE":"240.7459","MEAN_ANOMALY":"293.7310","CENTER_NAME":"EARTH","SEMIMAJOR_AXIS":"6925.347","APOAPSIS":"548.571","BSTAR":"-0.00001934900000","MEAN_ELEMENT_THEORY":"SGP4","TLE_LINE2":"2 46563  53.0565 240.7459 0001963  66.3885 293.7310 15.06400555 91484","DECAY_DATE":null,"LAUNCH_DATE":"2020-10-06","ARG_OF_PERICENTER":"66.3885","COUNTRY_CODE":"US","RCS_SIZE":"LARGE","INCLINATION":"53.0565","ECCENTRICITY":"0.00019630","EPHEMERIS_TYPE":"0","MEAN_MOTION_DOT":"-0.00000570","TIME_SYSTEM":"UTC","GP_ID":"204715494","MEAN_MOTION_DDOT":"0.0000000000000"},{"RA_OF_ASC_NODE":"240.8173","OBJECT_TYPE":"PAYLOAD","SEMIMAJOR_AXIS":"6925.363","MEAN_ANOMALY":"290.5616","CENTER_NAME":"EARTH","OBJECT_ID":"2020-070AJ","PERIAPSIS":"546.106","SITE":"AFETR","REF_FRAME":"TEME","NORAD_CAT_ID":"46564","TLE_LINE1":"1 46564U 20070AJ  22147.65372101  .00001181  00000-0  98160-4 0  9994","ELEMENT_SET_NO":"999","MEAN_MOTION":"15.06395296","CLASSIFICATION_TYPE":"U","EPOCH":"2022-05-27T15:41:21.495264","PERIOD":"95.592","OBJECT_NAME":"STARLINK-1733","FILE":"3468079","REV_AT_EPOCH":"9148","EPHEMERIS_TYPE":"0","MEAN_MOTION_DOT":"0.00001181","INCLINATION":"53.0529","ECCENTRICITY":"0.00016200","TIME_SYSTEM":"UTC","GP_ID":"204714985","MEAN_MOTION_DDOT":"0.0000000000000","DECAY_DATE":null,"LAUNCH_DATE":"2020-10-06","BSTAR":"0.00009816000000","APOAPSIS":"548.350","TLE_LINE2":"2 46564  53.0529 240.8173 0001620  69.5547 290.5616 15.06395296 91488","MEAN_ELEMENT_THEORY":"SGP4","RCS_SIZE":"LARGE","ARG_OF_PERICENTER":"69.5547","COUNTRY_CODE":"US"},{"MEAN_ANOMALY":"303.9259","CENTER_NAME":"EARTH","SEMIMAJOR_AXIS":"6925.415","OBJECT_TYPE":"PAYLOAD","RA_OF_ASC_NODE":"240.6291","FILE":"3468079","OBJECT_NAME":"STARLINK-1735","PERIOD":"95.594","REV_AT_EPOCH":"9148","CLASSIFICATION_TYPE":"U","EPOCH":"2022-05-27T16:45:04.596768","ELEMENT_SET_NO":"999","TLE_LINE1":"1 46565U 20070AK  22147.69796987 -.00002048  00000-0 -11867-3 0  9994","MEAN_MOTION":"15.06378293","OBJECT_ID":"2020-070AK","PERIAPSIS":"546.072","NORAD_CAT_ID":"46565","SITE":"AFETR","REF_FRAME":"TEME","TIME_SYSTEM":"UTC","GP_ID":"204714496","MEAN_MOTION_DDOT":"0.0000000000000","ECCENTRICITY":"0.00017450","INCLINATION":"53.0556","EPHEMERIS_TYPE":"0","MEAN_MOTION_DOT":"-0.00002048","ARG_OF_PERICENTER":"56.1896","COUNTRY_CODE":"US","RCS_SIZE":"LARGE","BSTAR":"-0.00011867000000","APOAPSIS":"548.489","MEAN_ELEMENT_THEORY":"SGP4","TLE_LINE2":"2 46565  53.0556 240.6291 0001745  56.1896 303.9259 15.06378293 91485","DECAY_DATE":null,"LAUNCH_DATE":"2020-10-06"},{"REV_AT_EPOCH":"9147","FILE":"3468079","PERIOD":"95.593","OBJECT_NAME":"STARLINK-1740","EPOCH":"2022-05-27T14:48:17.875584","CLASSIFICATION_TYPE":"U","TLE_LINE1":"1 46566U 20070AL  22147.61687356  .00001188  00000-0  98668-4 0  9993","MEAN_MOTION":"15.06382453","ELEMENT_SET_NO":"999","NORAD_CAT_ID":"46566","REF_FRAME":"TEME","SITE":"AFETR","PERIAPSIS":"546.157","OBJECT_ID":"2020-070AL","CENTER_NAME":"EARTH","MEAN_ANOMALY":"308.9177","SEMIMAJOR_AXIS":"6925.402","OBJECT_TYPE":"PAYLOAD","RA_OF_ASC_NODE":"240.9718","COUNTRY_CODE":"US","ARG_OF_PERICENTER":"51.1955","RCS_SIZE":"LARGE","MEAN_ELEMENT_THEORY":"SGP4","TLE_LINE2":"2 46566  53.0538 240.9718 0001604  51.1955 308.9177 15.06382453 91474","APOAPSIS":"548.378","BSTAR":"0.00009866800000","LAUNCH_DATE":"2020-10-06","DECAY_DATE":null,"MEAN_MOTION_DDOT":"0.0000000000000","TIME_SYSTEM":"UTC","GP_ID":"204714746","ECCENTRICITY":"0.00016040","INCLINATION":"53.0538","MEAN_MOTION_DOT":"0.00001188","EPHEMERIS_TYPE":"0"},{"RA_OF_ASC_NODE":"240.8498","OBJECT_TYPE":"PAYLOAD","SEMIMAJOR_AXIS":"6925.387","CENTER_NAME":"EARTH","MEAN_ANOMALY":"301.6049","NORAD_CAT_ID":"46567","REF_FRAME":"TEME","SITE":"AFETR","OBJECT_ID":"2020-070AM","PERIAPSIS":"546.223","TLE_LINE1":"1 46567U 20070AM  22147.64636253 -.00000678  00000-0 -26651-4 0  9995","ELEMENT_SET_NO":"999","MEAN_MOTION":"15.06387602","EPOCH":"2022-05-27T15:30:45.722592","CLASSIFICATION_TYPE":"U","REV_AT_EPOCH":"9148","FILE":"3468079","OBJECT_NAME":"STARLINK-1741","PERIOD":"95.593","MEAN_MOTION_DOT":"-0.00000678","EPHEMERIS_TYPE":"0","ECCENTRICITY":"0.00014850","INCLINATION":"53.0537","MEAN_MOTION_DDOT":"0.0000000000000","TIME_SYSTEM":"UTC","GP_ID":"204715993","LAUNCH_DATE":"2020-10-06","DECAY_DATE":null,"MEAN_ELEMENT_THEORY":"SGP4","TLE_LINE2":"2 46567  53.0537 240.8498 0001485  58.5085 301.6049 15.06387602 91480","APOAPSIS":"548.280","BSTAR":"-0.00002665100000","RCS_SIZE":"LARGE","COUNTRY_CODE":"US","ARG_OF_PERICENTER":"58.5085"},{"MEAN_ANOMALY":"296.4615","CENTER_NAME":"EARTH","SEMIMAJOR_AXIS":"6925.320","OBJECT_TYPE":"PAYLOAD","RA_OF_ASC_NODE":"240.4825","OBJECT_NAME":"STARLINK-1747","PERIOD":"95.592","FILE":"3468079","REV_AT_EPOCH":"9149","CLASSIFICATION_TYPE":"U","EPOCH":"2022-05-27T17:27:30.223296","ELEMENT_SET_NO":"999","TLE_LINE1":"1 46569U 20070AP  22147.72743314  .00000494  00000-0  52037-4 0  9994","MEAN_MOTION":"15.06409265","OBJECT_ID":"2020-070AP","PERIAPSIS":"546.050","REF_FRAME":"TEME","SITE":"AFETR","NORAD_CAT_ID":"46569","TIME_SYSTEM":"UTC","GP_ID":"204714486","MEAN_MOTION_DDOT":"0.0000000000000","INCLINATION":"53.0554","ECCENTRICITY":"0.00016390","EPHEMERIS_TYPE":"0","MEAN_MOTION_DOT":"0.00000494","ARG_OF_PERICENTER":"63.6542","COUNTRY_CODE":"US","RCS_SIZE":"LARGE","APOAPSIS":"548.320","BSTAR":"0.00005203700000","TLE_LINE2":"2 46569  53.0554 240.4825 0001639  63.6542 296.4615 15.06409265 91498","MEAN_ELEMENT_THEORY":"SGP4","DECAY_DATE":null,"LAUNCH_DATE":"2020-10-06"},{"COUNTRY_CODE":"US","ARG_OF_PERICENTER":"48.0277","RCS_SIZE":"LARGE","MEAN_ELEMENT_THEORY":"SGP4","TLE_LINE2":"2 46570  53.0544 241.2061 0001802  48.0277 312.0865 15.06814171 91469","BSTAR":"0.00144970000000","APOAPSIS":"547.192","LAUNCH_DATE":"2020-10-06","DECAY_DATE":null,"MEAN_MOTION_DDOT":"0.0000000000000","TIME_SYSTEM":"UTC","GP_ID":"204679526","ECCENTRICITY":"0.00018020","INCLINATION":"53.0544","MEAN_MOTION_DOT":"0.00021621","EPHEMERIS_TYPE":"0","REV_AT_EPOCH":"9146","FILE":"3467585","OBJECT_NAME":"STARLINK-1748","PERIOD":"95.566","EPOCH":"2022-05-27T13:37:49.215072","CLASSIFICATION_TYPE":"U","MEAN_MOTION":"15.06814171","TLE_LINE1":"1 46570U 20070AQ  22147.56793073  .00021621  00000-0  14497-2 0  9996","ELEMENT_SET_NO":"999","NORAD_CAT_ID":"46570","SITE":"AFETR","REF_FRAME":"TEME","PERIAPSIS":"544.697","OBJECT_ID":"2020-070AQ","CENTER_NAME":"EARTH","MEAN_ANOMALY":"312.0865","SEMIMAJOR_AXIS":"6924.079","OBJECT_TYPE":"PAYLOAD","RA_OF_ASC_NODE":"241.2061"}];
